[{"OBJECT_NAME":"STARLINK-6034","OBJECT_ID":"2023-058H","EPOCH":"2026-03-09T21:38:58.308864","MEAN_MOTION":15.05652451,"ECCENTRICITY":0.00017412,"INCLINATION":97.6039,"RA_OF_ASC_NODE":71.5027,"ARG_OF_PERICENTER":85.5246,"MEAN_ANOMALY":274.618,"EPHEMERIS_TYPE":0,"CLASSIFICATION_TYPE":"U","NORAD_CAT_ID":56324,"ELEMENT_SET_NO":999,"REV_AT_EPOCH":15788,"BSTAR":1.406853e-5,"MEAN_MOTION_DOT":1.42e-6,"MEAN_MOTION_DDOT":0},{"OBJECT_NAME":"CZ-2D DEB","OBJECT_ID":"2018-048F","EPOCH":"2026-03-09T12:09:53.706240","MEAN_MOTION":15.03119858,"ECCENTRICITY":0.00118256,"INCLINATION":98.3009,"RA_OF_ASC_NODE":268.7455,"ARG_OF_PERICENTER":183.5969,"MEAN_ANOMALY":176.5171,"EPHEMERIS_TYPE":0,"CLASSIFICATION_TYPE":"U","NORAD_CAT_ID":44619,"ELEMENT_SET_NO":999,"REV_AT_EPOCH":41667,"BSTAR":0.00065531565,"MEAN_MOTION_DOT":8.795e-5,"MEAN_MOTION_DDOT":0}]
